{
  "norad_id": 50851,
  "name": "STARLINK-3314",
  "history": [
    {
      "epoch": "2026-03-28T17:22:11.006400Z",
      "apogee_km": 540.7192285523006,
      "perigee_km": 538.7642360225564,
      "latitude_deg": 3.567474860471722e-06,
      "longitude_deg": 6.913057578118385,
      "height_km": 540.6069343953204,
      "semi_major_axis_km": 6917.878732287429,
      "eccentricity": 0.0001413,
      "inclination_deg": 53.2168,
      "raan_deg": 93.599,
      "arg_perigee_deg": 88.2197,
      "mean_anomaly_deg": 271.8957,
      "mean_motion_rev_day": 15.08840542
    }
  ]
}